OBJECT_NAME,OBJECT_ID,EPOCH,MEAN_MOTION,ECCENTRICITY,INCLINATION,RA_OF_ASC_NODE,ARG_OF_PERICENTER,MEAN_ANOMALY,EPHEMERIS_TYPE,CLASSIFICATION_TYPE,NORAD_CAT_ID,ELEMENT_SET_NO,REV_AT_EPOCH,BSTAR,MEAN_MOTION_DOT,MEAN_MOTION_DDOT
SKYSAT-C1,2016-040C,2026-06-17T14:34:17.850720,15.36307258,.00034391,96.9555,200.3043,57.2822,302.8754,0,U,41601,999,55793,.20340559E-3,.7126E-4,0
LAPAN-A3,2016-040E,2026-06-17T15:33:10.893600,15.33106953,.00108408,97.1488,164.7785,24.3626,335.8127,0,U,41603,999,55488,.88504173E-4,.276E-4,0
GAOFEN-3,2016-049A,2026-06-17T15:20:09.671712,14.42215230,.0001396,98.4003,176.4181,98.8115,261.3233,0,U,41727,999,51871,-.7369561E-5,-.68E-6,0
SKYSAT-C4,2016-058B,2026-06-17T14:10:28.465536,15.48596201,.00014133,96.9165,190.3459,135.1263,225.0104,0,U,41771,999,54553,.25587166E-3,.13571E-3,0
SKYSAT-C5,2016-058C,2026-06-17T02:29:39.410304,15.34468979,.0001082,97.0466,208.7481,316.1442,43.9716,0,U,41772,999,54373,.18073367E-3,.5959E-4,0
SKYSAT-C2,2016-058D,2026-06-17T12:27:15.721344,15.42076805,.00046468,97.0162,190.6014,70.1413,290.0335,0,U,41773,999,54510,.22086383E-3,.9361E-4,0
SKYSAT-C3,2016-058E,2026-06-17T14:16:08.395968,15.52553563,.00014799,96.8998,199.4253,95.4933,264.6490,0,U,41774,999,54617,.29922203E-3,.18287E-3,0
ALSAT-1B,2016-059C,2026-06-17T13:55:11.855712,14.72274026,.00080922,97.7743,177.3266,218.6795,141.3834,0,U,41785,999,52063,.9619617E-5,.14E-6,0
PATHFINDER 1,2016-059E,2026-06-17T13:05:39.083136,14.67663477,.00278239,97.8166,167.8057,202.3935,157.6058,0,U,41787,999,51976,.83877649E-4,.433E-5,0
SCATSAT 1,2016-059H,2026-06-17T03:29:42.883872,14.79525390,.00533838,98.1191,231.9113,247.6282,111.9267,0,U,41790,999,10158,.12249434E-3,.88E-5,0
GOKTURK 1A,2016-073A,2026-06-17T14:06:22.337856,14.62774259,.00014529,98.1256,63.2564,76.8802,283.2562,0,U,41875,999,50888,.4177629E-4,.166E-5,0
RESOURCESAT-2A,2016-074A,2026-06-17T15:12:45.052128,14.21616748,.00033635,98.7530,242.1347,82.6465,277.5094,0,U,41877,999,49436,.11621196E-3,.211E-5,0
CARTOSAT-2D,2017-008A,2026-06-17T14:52:03.389088,15.19213128,.00038177,97.4107,227.9178,232.5592,127.5296,0,U,41948,999,51764,.24641377E-3,.5121E-4,0
SENTINEL-2B,2017-013A,2026-06-17T15:02:59.032032,14.30817569,.0001196,98.5696,243.3954,87.0495,273.0825,0,U,42063,999,48470,.10432725E-3,.23E-5,0
CARTOSAT-2E,2017-036C,2026-06-17T13:42:54.249408,15.19262562,.00024852,97.4273,228.3681,317.7365,42.3678,0,U,42767,999,49820,.3181935E-3,.6643E-4,0
FORMOSAT-5,2017-049A,2026-06-17T12:51:19.830816,14.50898988,.00126774,98.2255,243.8376,83.4084,276.8554,0,U,42920,999,46672,.42742965E-4,.125E-5,0
SENTINEL-5P,2017-064A,2026-06-17T09:55:12.483552,14.19518977,.00009662,98.7925,110.5430,85.7323,274.3963,0,U,42969,999,44959,.33695449E-4,.27E-6,0
SKYSAT-C11,2017-068A,2026-06-17T09:04:58.005696,15.57900957,.00006397,97.4358,317.2172,86.7945,273.3384,0,U,42987,999,48327,.31556359E-3,.23474E-3,0
SKYSAT-C10,2017-068B,2026-06-17T08:34:52.980096,15.34640271,.00011092,97.4512,305.2058,96.7257,263.4112,0,U,42988,999,48238,.2081268E-3,.6905E-4,0
SKYSAT-C9,2017-068C,2026-06-17T07:17:34.552032,15.41563589,.00094028,97.4432,306.0875,132.5831,227.6210,0,U,42989,999,48277,.25173627E-3,.10506E-3,0
SKYSAT-C8,2017-068D,2026-06-17T07:53:15.722016,15.36977849,.00014775,97.4530,304.9769,95.7626,264.3786,0,U,42990,999,48233,.23694522E-3,.8487E-4,0
SKYSAT-C7,2017-068E,2026-06-17T07:44:04.758720,15.36928292,.00072001,97.4539,305.9599,106.2603,253.9433,0,U,42991,999,48239,.23842897E-3,.8534E-4,0
SKYSAT-C6,2017-068F,2026-06-17T08:13:06.098016,15.34212841,.00044444,97.4573,305.9494,137.0324,223.1267,0,U,42992,999,48234,.23210709E-3,.7608E-4,0
CARTOSAT-2F,2018-004A,2026-06-17T14:29:15.233856,15.19220657,.00006745,97.4785,228.2344,198.4290,161.6921,0,U,43111,999,46739,.23735287E-3,.493E-4,0
GAOFEN-1 02,2018-031A,2026-06-17T15:17:46.799808,14.76457953,.00038208,98.0528,231.1634,32.9134,327.2313,0,U,43259,999,44276,.10807773E-3,.7E-5,0
GAOFEN-1 03,2018-031B,2026-06-17T14:46:18.615936,14.76469693,.00037384,98.0517,230.9999,78.3370,281.8259,0,U,43260,999,44275,.8961326E-4,.572E-5,0
GAOFEN-1 04,2018-031D,2026-06-17T15:48:55.006272,14.76434958,.0002115,98.0534,231.2345,82.0354,278.1095,0,U,43262,999,44275,.94756E-4,.607E-5,0
SENTINEL-3B,2018-039A,2026-06-17T02:52:11.549568,14.26734700,.00007272,98.6249,235.6528,88.7815,271.3448,0,U,43437,999,42411,.53558085E-4,.86E-6,0
GAOFEN-5 01,2018-043A,2026-06-17T12:59:25.211328,14.60605744,.00030387,98.4569,140.1349,82.9705,277.1840,0,U,43461,999,43174,.64149398E-4,.263E-5,0
GAOFEN-6,2018-048A,2026-06-17T14:43:05.662272,14.76611755,.0012414,97.9301,231.3603,165.8712,194.2847,0,U,43484,999,43345,.11668E-3,.765E-5,0
