SKYSAT-C1               
1 41601U 16040C   26168.60715105  .00007126  00000+0  20341-3 0  9999
2 41601  96.9555 200.3043 0003439  57.2822 302.8754 15.36307258557938
LAPAN-A3                
1 41603U 16040E   26168.64804275  .00002760  00000+0  88504-4 0  9997
2 41603  97.1488 164.7785 0010840  24.3626 335.8127 15.33106953554882
GAOFEN-3                
1 41727U 16049A   26168.63900083 -.00000068  00000+0 -73696-5 0  9994
2 41727  98.4003 176.4181 0001396  98.8115 261.3233 14.42215230518712
SKYSAT-C4               
1 41771U 16058B   26168.59060724  .00013571  00000+0  25587-3 0  9992
2 41771  96.9165 190.3459 0001413 135.1263 225.0104 15.48596201545536
SKYSAT-C5               
1 41772U 16058C   26168.10392836  .00005959  00000+0  18073-3 0  9995
2 41772  97.0466 208.7481 0001082 316.1442  43.9716 15.34468979543735
SKYSAT-C2               
1 41773U 16058D   26168.51893196  .00009361  00000+0  22086-3 0  9996
2 41773  97.0162 190.6014 0004646  70.1413 290.0335 15.42076805545101
SKYSAT-C3               
1 41774U 16058E   26168.59454162  .00018287  00000+0  29922-3 0  9994
2 41774  96.8998 199.4253 0001479  95.4933 264.6490 15.52553563546175
ALSAT-1B                
1 41785U 16059C   26168.57999833  .00000014  00000+0  96196-5 0  9992
2 41785  97.7743 177.3266 0008092 218.6795 141.3834 14.72274026520638
PATHFINDER 1            
1 41787U 16059E   26168.54559124  .00000433  00000+0  83878-4 0  9993
2 41787  97.8166 167.8057 0027823 202.3935 157.6058 14.67663477519767
SCATSAT 1               
1 41790U 16059H   26168.14563523  .00000880  00000+0  12249-3 0  9990
2 41790  98.1191 231.9113 0053383 247.6282 111.9267 14.79525390101582
GOKTURK 1A              
1 41875U 16073A   26168.58775854  .00000166  00000+0  41776-4 0  9995
2 41875  98.1256  63.2564 0001452  76.8802 283.2562 14.62774259508881
RESOURCESAT-2A          
1 41877U 16074A   26168.63385477  .00000211  00000+0  11621-3 0  9998
2 41877  98.7530 242.1347 0003363  82.6465 277.5094 14.21616748494360
CARTOSAT-2D             
1 41948U 17008A   26168.61948367  .00005121  00000+0  24641-3 0  9997
2 41948  97.4107 227.9178 0003817 232.5592 127.5296 15.19213128517647
SENTINEL-2B             
1 42063U 17013A   26168.62707213  .00000230  00000+0  10433-3 0  9996
2 42063  98.5696 243.3954 0001196  87.0495 273.0825 14.30817569484704
CARTOSAT-2E             
1 42767U 17036C   26168.57146122  .00006643  00000+0  31819-3 0  9997
2 42767  97.4273 228.3681 0002485 317.7365  42.3678 15.19262562498203
FORMOSAT-5              
1 42920U 17049A   26168.53564619  .00000125  00000+0  42743-4 0  9991
2 42920  98.2255 243.8376 0012677  83.4084 276.8554 14.50898988466725
SENTINEL-5P             
1 42969U 17064A   26168.41333893  .00000027  00000+0  33695-4 0  9993
2 42969  98.7925 110.5430 0000966  85.7323 274.3963 14.19518977449592
SKYSAT-C11              
1 42987U 17068A   26168.37844914  .00023474  00000+0  31556-3 0  9997
2 42987  97.4358 317.2172 0000639  86.7945 273.3384 15.57900957483270
SKYSAT-C10              
1 42988U 17068B   26168.35755764  .00006905  00000+0  20813-3 0  9994
2 42988  97.4512 305.2058 0001109  96.7257 263.4112 15.34640271482388
SKYSAT-C9               
1 42989U 17068C   26168.30387213  .00010506  00000+0  25174-3 0  9997
2 42989  97.4432 306.0875 0009402 132.5831 227.6210 15.41563589482775
SKYSAT-C8               
1 42990U 17068D   26168.32865419  .00008487  00000+0  23695-3 0  9991
2 42990  97.4530 304.9769 0001477  95.7626 264.3786 15.36977849482331
SKYSAT-C7               
1 42991U 17068E   26168.32227730  .00008534  00000+0  23843-3 0  9998
2 42991  97.4539 305.9599 0007200 106.2603 253.9433 15.36928292482393
SKYSAT-C6               
1 42992U 17068F   26168.34243169  .00007608  00000+0  23211-3 0  9995
2 42992  97.4573 305.9494 0004444 137.0324 223.1267 15.34212841482348
CARTOSAT-2F             
1 43111U 18004A   26168.60364854  .00004930  00000+0  23735-3 0  9990
2 43111  97.4785 228.2344 0000674 198.4290 161.6921 15.19220657467390
GAOFEN-1 02             
1 43259U 18031A   26168.63734722  .00000700  00000+0  10808-3 0  9999
2 43259  98.0528 231.1634 0003820  32.9134 327.2313 14.76457953442767
GAOFEN-1 03             
1 43260U 18031B   26168.61549324  .00000572  00000+0  89613-4 0  9999
2 43260  98.0517 230.9999 0003738  78.3370 281.8259 14.76469693442759
GAOFEN-1 04             
1 43262U 18031D   26168.65896998  .00000607  00000+0  94756-4 0  9990
2 43262  98.0534 231.2345 0002115  82.0354 278.1095 14.76434958442754
SENTINEL-3B             
1 43437U 18039A   26168.11957812  .00000086  00000+0  53558-4 0  9992
2 43437  98.6249 235.6528 0000727  88.7815 271.3448 14.26734700424110
GAOFEN-5 01             
1 43461U 18043A   26168.54126402  .00000263  00000+0  64149-4 0  9999
2 43461  98.4569 140.1349 0003038  82.9705 277.1840 14.60605744431743
GAOFEN-6                
1 43484U 18048A   26168.61325998  .00000765  00000+0  11668-3 0  9992
2 43484  97.9301 231.3603 0012414 165.8712 194.2847 14.76611755433451
